H1 CPF  1  HTS 2022 10 16 12  7891 larets           NONE
H2  0304206 5557    27944 2022 10 16  0  0  0 2022 10 21  0  0  0   180 1 1  0 0 0
H5  0.0560 
H9 
10 0 59871  33480.00000  0    2208159.935    5615249.500   -3667658.352
10 0 59871  33660.00000  0    2187938.152    4761122.053   -4732767.278
10 0 59871  33840.00000  0    2063520.889    3735831.707   -5624603.854
10 0 59871  34020.00000  0    1835546.015    2579522.029   -6310738.145
10 0 59871  34200.00000  0    1509505.581    1336918.707   -6766306.800
10 0 59871  34380.00000  0    1095628.299      55572.949   -6974859.119
10 0 59871  34560.00000  0     608555.033   -1215960.102   -6928903.866
10 0 59871  34740.00000  0      66817.379   -2429946.574   -6630146.976
10 0 59871  34920.00000  0    -507859.422   -3541242.318   -6089428.658
10 0 59871  35100.00000  0   -1091413.003   -4508964.443   -5326359.792
10 0 59871  35280.00000  0   -1658430.019   -5298007.813   -4368656.099
10 0 59871  35460.00000  0   -2183231.383   -5880356.549   -3251180.424
10 0 59871  35640.00000  0   -2641012.879   -6236131.508   -2014707.989
10 0 59871  35820.00000  0   -3008988.995   -6354324.515    -704451.001
10 0 59871  36000.00000  0   -3267484.418   -6233177.877     631612.071
10 0 59871  36180.00000  0   -3400912.883   -5880177.120    1944534.071
10 0 59871  36360.00000  0   -3398590.105   -5311655.343    3186240.153
10 0 59871  36540.00000  0   -3255337.460   -4552031.127    4311326.453
10 0 59871  36720.00000  0   -2971847.849   -3632726.725    5278737.050
10 0 59871  36900.00000  0   -2554800.210   -2590824.753    6053252.199
10 0 59871  37080.00000  0   -2016719.023   -1467537.089    6606735.877
10 0 59871  37260.00000  0   -1375589.609    -306557.295    6919114.052
10 0 59871  37440.00000  0    -654246.851     847642.177    6979055.025
10 0 59871  37620.00000  0     120434.243    1951497.398    6784349.639
10 0 59871  37800.00000  0     918529.388    2963981.856    6341992.616
10 0 59871  37980.00000  0    1708206.709    3848123.410    5667955.609
10 0 59871  38160.00000  0    2456981.863    4572365.079    4786657.983
10 0 59871  38340.00000  0    3133048.947    5111724.854    3730135.548
10 0 59871  38520.00000  0    3706633.722    5448703.925    2536921.858
10 0 59871  38700.00000  0    4151316.472    5573909.421    1250664.444
10 0 59871  38880.00000  0    4445249.303    5486340.577     -81486.810
10 0 59871  39060.00000  0    4572204.066    5193323.625   -1410648.031
10 0 59871  39240.00000  0    4522395.381    4710088.619   -2688047.845
10 0 59871  39420.00000  0    4293033.105    4059017.326   -3866868.821
10 0 59871  39600.00000  0    3888572.085    3268599.940   -4904000.861
10 0 59871  39780.00000  0    3320653.487    2372160.156   -5761625.835
10 0 59871  39960.00000  0    2607746.249    1406418.688   -6408576.503
10 0 59871  40140.00000  0    1774509.941     409966.142   -6821423.414
10 0 59871  40320.00000  0     850916.032    -578283.203   -6985266.859
10 0 59871  40500.00000  0    -128840.028   -1520601.790   -6894231.294
10 0 59871  40680.00000  0   -1127600.208   -2381871.638   -6551649.580
10 0 59871  40860.00000  0   -2106637.468   -3130878.170   -5969947.609
10 0 59871  41040.00000  0   -3027141.498   -3741440.012   -5170224.629
10 0 59871  41220.00000  0   -3851752.168   -4193339.463   -4181538.553
10 0 59871  41400.00000  0   -4546088.229   -4473019.295   -3039896.406
10 0 59871  41580.00000  0   -5080202.913   -4574011.442   -1786973.681
10 0 59871  41760.00000  0   -5429899.605   -4497074.510    -468598.505
10 0 59871  41940.00000  0   -5577838.696   -4250028.429     866944.710
10 0 59871  42120.00000  0   -5514374.804   -3847290.798    2170725.564
10 0 59871  42300.00000  0   -5238072.488   -3309132.126    3395010.050
10 0 59871  42480.00000  0   -4755875.664   -2660692.941    4495043.942
10 0 59871  42660.00000  0   -4082926.678   -1930818.030    5430702.403
10 0 59871  42840.00000  0   -3242051.936   -1150771.984    6167935.295
10 0 59871  43020.00000  0   -2262949.432    -352901.672    6679970.934
10 0 59871  43200.00000  0   -1181106.598     430701.954    6948242.679
10 0 59871  43380.00000  0     -36501.006    1169480.033    6963014.199
10 0 59871  43560.00000  0    1127867.048    1835581.762    6723708.665
10 0 59871  43740.00000  0    2267572.092    2404906.426    6238933.901
10 0 59871  43920.00000  0    3338442.221    2857974.870    5526202.433
10 0 59871  44100.00000  0    4298270.525    3180607.163    4611350.068
10 0 59871  44280.00000  0    5108496.554    3364382.264    3527652.611
10 0 59871  44460.00000  0    5735798.723    3406859.836    2314659.367
10 0 59871  44640.00000  0    6153517.207    3311545.396    1016761.154
10 0 59871  44820.00000  0    6342832.106    3087600.008    -318450.642
10 0 59871  45000.00000  0    6293631.144    2749299.990   -1641974.362
10 0 59871  45180.00000  0    6005013.769    2315273.594   -2905249.757
10 0 59871  45360.00000  0    5485409.835    1807561.703   -4061989.676
10 0 59871  45540.00000  0    4752305.530    1250544.885   -5069911.019
10 0 59871  45720.00000  0    3831592.185     669797.848   -5892283.605
10 0 59871  45900.00000  0    2756586.655      90935.784   -6499239.390
10 0 59871  46080.00000  0    1566772.902    -461495.659   -6868809.440
10 0 59871  46260.00000  0     306324.607    -965041.861   -6987665.443
10 0 59871  46440.00000  0    -977539.758   -1400234.874   -6851558.683
10 0 59871  46620.00000  0   -2236312.139   -1751332.556   -6465451.992
10 0 59871  46800.00000  0   -3422008.886   -2006882.587   -5843347.864
10 0 59871  46980.00000  0   -4488986.699   -2160094.141   -5007816.436
10 0 59871  47160.00000  0   -5395712.361   -2209008.580   -3989228.367
10 0 59871  47340.00000  0   -6106415.509   -2156458.625   -2824696.057
10 0 59871  47520.00000  0   -6592552.952   -2009815.373   -1556748.165
10 0 59871  47700.00000  0   -6834010.898   -1780530.659    -231776.710
10 0 59871  47880.00000  0   -6819980.160   -1483494.674    1101686.105
10 0 59871  48060.00000  0   -6549452.143   -1136238.950    2394789.536
10 0 59871  48240.00000  0   -6031304.572    -758028.330    3600200.530
10 0 59871  48420.00000  0   -5283975.747    -368889.622    4673870.718
10 0 59871  48600.00000  0   -4334745.869      11370.926    5576654.227
10 0 59871  48780.00000  0   -3218679.078     364110.614    6275712.089
10 0 59871  48960.00000  0   -1977278.073     672710.683    6745667.765
10 0 59871  49140.00000  0    -656909.921     923315.697    6969480.861
10 0 59871  49320.00000  0     692931.104    1105427.345    6939022.021
10 0 59871  49500.00000  0    2021462.027    1212331.916    6655346.486
10 0 59871  49680.00000  0    3278500.118    1241348.768    6128666.400
10 0 59871  49860.00000  0    4416348.927    1193890.433    5378019.060
10 0 59871  50040.00000  0    5391619.453    1075332.408    4430629.438
10 0 59871  50220.00000  0    6166925.953     894696.844    3320979.444
10 0 59871  50400.00000  0    6712385.304     664161.114    2089586.748
10 0 59871  50580.00000  0    7006839.771     398408.678     781534.070
10 0 59871  50760.00000  0    7038743.707     113853.716    -555202.358
10 0 59871  50940.00000  0    6806656.934    -172223.305   -1871559.490
10 0 59871  51120.00000  0    6319310.984    -442583.158   -3119245.795
10 0 59871  51300.00000  0    5595246.770    -680930.263   -4252561.526
10 0 59871  51480.00000  0    4662046.783    -872759.988   -5230100.263
10 0 59871  51660.00000  0    3555210.083   -1006105.659   -6016257.670
10 0 59871  51840.00000  0    2316735.239   -1072154.862   -6582497.558
10 0 59871  52020.00000  0     993478.767   -1065705.470   -6908337.397
10 0 59871  52200.00000  0    -364636.655    -985445.660   -6982036.148
10 0 59871  52380.00000  0   -1706500.949    -834050.256   -6800978.642
10 0 59871  52560.00000  0   -2981722.477    -618089.746   -6371754.193
10 0 59871  52740.00000  0   -4142501.107    -347755.121   -5709928.289
10 0 59871  52920.00000  0   -5145416.045     -36408.539   -4839519.201
10 0 59871  53100.00000  0   -5953073.834     300025.784   -3792176.527
10 0 59871  53280.00000  0   -6535552.969     643809.324   -2606076.233
10 0 59871  53460.00000  0   -6871578.280     976246.930   -1324552.433
10 0 59871  53640.00000  0   -6949363.000    1278613.792       5490.799
10 0 59871  53820.00000  0   -6767064.630    1533103.459    1335330.854
10 0 59871  54000.00000  0   -6332825.590    1723748.496    2616254.671
10 0 59871  54180.00000  0   -5664401.707    1837265.844    3801387.870
10 0 59871  54360.00000  0   -4788392.151    1863778.922    4847440.635
10 0 59871  54540.00000  0   -3739121.169    1797381.549    5716289.374
10 0 59871  54720.00000  0   -2557240.517    1636520.603    6376340.953
10 0 59871  54900.00000  0   -1288114.291    1384182.677    6803642.882
10 0 59871  55080.00000  0      19944.174    1047875.983    6982702.162
10 0 59871  55260.00000  0    1317504.521     639411.421    6907004.344
10 0 59871  55440.00000  0    2555865.935     174491.253    6579235.348
10 0 59871  55620.00000  0    3688866.793    -327883.443    6011202.389
10 0 59871  55800.00000  0    4674605.821    -846171.167    5223449.342
10 0 59871  55980.00000  0    5477015.572   -1357190.539    4244566.197
10 0 59871  56160.00000  0    6067231.514   -1837130.592    3110202.471
10 0 59871  56340.00000  0    6424697.381   -2262630.952    1861800.585
10 0 59871  56520.00000  0    6537947.464   -2611881.771     545085.511
10 0 59871  56700.00000  0    6405021.536   -2865688.080    -791636.266
10 0 59871  56880.00000  0    6033481.683   -3008440.770   -2099299.823
10 0 59871  57060.00000  0    5440022.499   -3028939.757   -3329940.869
10 0 59871  57240.00000  0    4649700.798   -2921024.544   -4438500.058
10 0 59871  57420.00000  0    3694831.233   -2683984.126   -5384495.440
10 0 59871  57600.00000  0    2613605.906   -2322725.840   -6133492.511
10 0 59871  57780.00000  0    1448520.944   -1847701.334   -6658318.840
99
